[{"OBJECT_NAME":"STARLINK-36328","OBJECT_ID":"2026-042AD","EPOCH":"2026-03-11T18:00:01.999296","MEAN_MOTION":15.99209357,"ECCENTRICITY":0.0001086,"INCLINATION":53.1598,"RA_OF_ASC_NODE":184.6055,"ARG_OF_PERICENTER":46.2366,"MEAN_ANOMALY":55.2954,"EPHEMERIS_TYPE":0,"CLASSIFICATION_TYPE":"U","NORAD_CAT_ID":68096,"ELEMENT_SET_NO":999,"REV_AT_EPOCH":237,"BSTAR":-0.002938,"MEAN_MOTION_DOT":-0.01470283,"MEAN_MOTION_DDOT":0.00066402},{"OBJECT_NAME":"STARLINK-36853","OBJECT_ID":"2026-042AE","EPOCH":"2026-03-11T18:00:01.999296","MEAN_MOTION":15.98973325,"ECCENTRICITY":9.02e-5,"INCLINATION":53.1596,"RA_OF_ASC_NODE":184.6156,"ARG_OF_PERICENTER":66.2722,"MEAN_ANOMALY":30.3978,"EPHEMERIS_TYPE":0,"CLASSIFICATION_TYPE":"U","NORAD_CAT_ID":68097,"ELEMENT_SET_NO":999,"REV_AT_EPOCH":238,"BSTAR":-0.0029887,"MEAN_MOTION_DOT":-0.01475737,"MEAN_MOTION_DDOT":0.00066685},{"OBJECT_NAME":"GLOBAL-34","OBJECT_ID":"2026-043A","EPOCH":"2026-03-11T10:20:45.361248","MEAN_MOTION":15.31549438,"ECCENTRICITY":0.0006636,"INCLINATION":42.0218,"RA_OF_ASC_NODE":65.4469,"ARG_OF_PERICENTER":299.6706,"MEAN_ANOMALY":60.347,"EPHEMERIS_TYPE":0,"CLASSIFICATION_TYPE":"U","NORAD_CAT_ID":68098,"ELEMENT_SET_NO":999,"REV_AT_EPOCH":83,"BSTAR":0.00047783,"MEAN_MOTION_DOT":0.00014658,"MEAN_MOTION_DDOT":0},{"OBJECT_NAME":"ELECTRON R/B","OBJECT_ID":"2026-043B","EPOCH":"2026-03-11T15:49:10.654176","MEAN_MOTION":16.12730432,"ECCENTRICITY":0.0114096,"INCLINATION":42.0102,"RA_OF_ASC_NODE":60.921,"ARG_OF_PERICENTER":306.9559,"MEAN_ANOMALY":52.0903,"EPHEMERIS_TYPE":0,"CLASSIFICATION_TYPE":"U","NORAD_CAT_ID":68099,"ELEMENT_SET_NO":999,"REV_AT_EPOCH":90,"BSTAR":0.0012397,"MEAN_MOTION_DOT":0.04777467,"MEAN_MOTION_DDOT":8.1333e-6},{"OBJECT_NAME":"ELECTRON KICK STAGE R/B","OBJECT_ID":"2026-043C","EPOCH":"2026-03-11T03:55:31.033632","MEAN_MOTION":16.09178519,"ECCENTRICITY":0.01108285,"INCLINATION":42.1162,"RA_OF_ASC_NODE":64.2884,"ARG_OF_PERICENTER":60.9066,"MEAN_ANOMALY":300.2846,"EPHEMERIS_TYPE":0,"CLASSIFICATION_TYPE":"U","NORAD_CAT_ID":68100,"ELEMENT_SET_NO":999,"REV_AT_EPOCH":81,"BSTAR":0.002029522,"MEAN_MOTION_DOT":0.05069526,"MEAN_MOTION_DDOT":8.362915e-6},{"OBJECT_NAME":"ECHOSTAR 25","OBJECT_ID":"2026-045A","EPOCH":"2026-03-11T09:52:45.154272","MEAN_MOTION":3.74430284,"ECCENTRICITY":0.6209398,"INCLINATION":26.8991,"RA_OF_ASC_NODE":70.3993,"ARG_OF_PERICENTER":175.3735,"MEAN_ANOMALY":195.5868,"EPHEMERIS_TYPE":0,"CLASSIFICATION_TYPE":"U","NORAD_CAT_ID":68126,"ELEMENT_SET_NO":999,"REV_AT_EPOCH":5,"BSTAR":6.4833e-5,"MEAN_MOTION_DOT":3.89e-6,"MEAN_MOTION_DDOT":0}]
