STARLINK-36328          
1 68096U 26042AD  26070.75002314 -.01470283  66402-3 -29380-2 0  9992
2 68096  53.1598 184.6055 0001086  46.2366  55.2954 15.99209357  2375
STARLINK-36853          
1 68097U 26042AE  26070.75002314 -.01475737  66685-3 -29887-2 0  9997
2 68097  53.1596 184.6156 0000902  66.2722  30.3978 15.98973325  2383
GLOBAL-34               
1 68098U 26043A   26070.43108057  .00014658  00000+0  47783-3 0  9994
2 68098  42.0218  65.4469 0006636 299.6706  60.3470 15.31549438   838
ELECTRON R/B            
1 68099U 26043B   26070.65915109  .04777467  81333-5  12397-2 0  9997
2 68099  42.0102  60.9210 0114096 306.9559  52.0903 16.12730432   906
ELECTRON KICK STAGE R/B 
1 68100U 26043C   26070.16355363  .05069526  83629-5  20295-2 0  9993
2 68100  42.1162  64.2884 0110828  60.9066 300.2846 16.09178519   811
ECHOSTAR 25             
1 68126U 26045A   26070.41163373  .00000389  00000+0  64833-4 0  9990
2 68126  26.8991  70.3993 6209398 175.3735 195.5868  3.74430284    51
